start=new Date('2023-05-26T00:00:00.000Z').valueOf();
sats=[{"RCS_SIZE":"LARGE","OBJECT_TYPE":"PAYLOAD","NORAD_CAT_ID":"53060","DECAY_DATE":null,"CENTER_NAME":"EARTH","FILE":"3917122","SEMIMAJOR_AXIS":"6941.148","OBJECT_ID":"2022-077T","LAUNCH_DATE":"2022-07-11","EPOCH":"2023-05-25T20:08:18.475872","EPHEMERIS_TYPE":"0","REF_FRAME":"TEME","TLE_LINE1":"1 53060U 22077T   23145.83910273 -.00000005  00000-0  42301-5 0  9991","BSTAR":"0.00000423010000","TIME_SYSTEM":"UTC","ECCENTRICITY":"0.00032130","MEAN_MOTION":"15.01259465","MEAN_MOTION_DOT":"-0.00000005","MEAN_ELEMENT_THEORY":"SGP4","MEAN_MOTION_DDOT":"0.0000000000000","PERIAPSIS":"560.783","APOAPSIS":"565.244","ELEMENT_SET_NO":"999","PERIOD":"95.919","OBJECT_NAME":"STARLINK-4305","COUNTRY_CODE":"US","RA_OF_ASC_NODE":"327.2400","TLE_LINE2":"2 53060  97.6556 327.2400 0003213  55.3576 304.7951 15.01259465 48056","MEAN_ANOMALY":"304.7951","GP_ID":"232516406","INCLINATION":"97.6556","CLASSIFICATION_TYPE":"U","SITE":"AFWTR","REV_AT_EPOCH":"4805","ARG_OF_PERICENTER":"55.3576"},{"ECCENTRICITY":"0.00022460","MEAN_MOTION":"15.01259439","TLE_LINE1":"1 53061U 22077U   23145.83169419 -.00000008  00000-0  40116-5 0  9995","BSTAR":"0.00000401160000","TIME_SYSTEM":"UTC","EPHEMERIS_TYPE":"0","REF_FRAME":"TEME","EPOCH":"2023-05-25T19:57:38.378016","LAUNCH_DATE":"2022-07-11","SEMIMAJOR_AXIS":"6941.149","OBJECT_ID":"2022-077U","FILE":"3917122","NORAD_CAT_ID":"53061","DECAY_DATE":null,"CENTER_NAME":"EARTH","OBJECT_TYPE":"PAYLOAD","RCS_SIZE":"LARGE","ARG_OF_PERICENTER":"47.8426","SITE":"AFWTR","REV_AT_EPOCH":"4805","INCLINATION":"97.6546","CLASSIFICATION_TYPE":"U","GP_ID":"232516656","MEAN_ANOMALY":"312.2988","TLE_LINE2":"2 53061  97.6546 327.2293 0002246  47.8426 312.2988 15.01259439 48056","OBJECT_NAME":"STARLINK-4308","COUNTRY_CODE":"US","RA_OF_ASC_NODE":"327.2293","PERIOD":"95.919","ELEMENT_SET_NO":"999","APOAPSIS":"564.573","MEAN_MOTION_DDOT":"0.0000000000000","PERIAPSIS":"561.455","MEAN_MOTION_DOT":"-0.00000008","MEAN_ELEMENT_THEORY":"SGP4"},{"ARG_OF_PERICENTER":"46.0537","SITE":"AFWTR","REV_AT_EPOCH":"4805","GP_ID":"232517408","INCLINATION":"97.6551","CLASSIFICATION_TYPE":"U","PERIOD":"95.919","ELEMENT_SET_NO":"999","TLE_LINE2":"2 53062  97.6551 327.2351 0002830  46.0537 314.0921 15.01259187 48058","MEAN_ANOMALY":"314.0921","OBJECT_NAME":"STARLINK-4311","COUNTRY_CODE":"US","RA_OF_ASC_NODE":"327.2351","MEAN_MOTION_DDOT":"0.0000000000000","PERIAPSIS":"561.050","MEAN_MOTION_DOT":"0.00000009","MEAN_ELEMENT_THEORY":"SGP4","APOAPSIS":"564.979","EPHEMERIS_TYPE":"0","REF_FRAME":"TEME","MEAN_MOTION":"15.01259187","ECCENTRICITY":"0.00028300","BSTAR":"0.00000526570000","TLE_LINE1":"1 53062U 22077V   23145.83539903  .00000009  00000-0  52657-5 0  9998","TIME_SYSTEM":"UTC","LAUNCH_DATE":"2022-07-11","EPOCH":"2023-05-25T20:02:58.476192","FILE":"3917122","NORAD_CAT_ID":"53062","DECAY_DATE":null,"CENTER_NAME":"EARTH","SEMIMAJOR_AXIS":"6941.149","OBJECT_ID":"2022-077V","RCS_SIZE":"LARGE","OBJECT_TYPE":"PAYLOAD"},{"OBJECT_TYPE":"PAYLOAD","RCS_SIZE":"LARGE","SEMIMAJOR_AXIS":"6938.652","OBJECT_ID":"2022-077W","FILE":"3916775","DECAY_DATE":null,"CENTER_NAME":"EARTH","NORAD_CAT_ID":"53063","EPOCH":"2023-05-25T11:00:45.116928","LAUNCH_DATE":"2022-07-11","ECCENTRICITY":"0.00018740","MEAN_MOTION":"15.02069808","TIME_SYSTEM":"UTC","TLE_LINE1":"1 53063U 22077W   23145.45885552  .00000362  00000-0  32088-4 0  9998","BSTAR":"0.00003208800000","EPHEMERIS_TYPE":"0","REF_FRAME":"TEME","APOAPSIS":"561.817","PERIAPSIS":"559.217","MEAN_MOTION_DDOT":"0.0000000000000","MEAN_ELEMENT_THEORY":"SGP4","MEAN_MOTION_DOT":"0.00000362","MEAN_ANOMALY":"270.5774","TLE_LINE2":"2 53063  97.6593 326.8634 0001874  89.5665 270.5774 15.02069808 48002","RA_OF_ASC_NODE":"326.8634","COUNTRY_CODE":"US","OBJECT_NAME":"STARLINK-4307","PERIOD":"95.868","ELEMENT_SET_NO":"999","CLASSIFICATION_TYPE":"U","INCLINATION":"97.6593","GP_ID":"232480545","ARG_OF_PERICENTER":"89.5665","REV_AT_EPOCH":"4800","SITE":"AFWTR"},{"SEMIMAJOR_AXIS":"6941.149","OBJECT_ID":"2022-077X","FILE":"3917122","NORAD_CAT_ID":"53064","CENTER_NAME":"EARTH","DECAY_DATE":null,"OBJECT_TYPE":"PAYLOAD","RCS_SIZE":"LARGE","ECCENTRICITY":"0.00026190","MEAN_MOTION":"15.01259379","BSTAR":"0.00000578300000","TLE_LINE1":"1 53064U 22077X   23145.83354609  .00000015  00000-0  57830-5 0  9993","TIME_SYSTEM":"UTC","REF_FRAME":"TEME","EPHEMERIS_TYPE":"0","EPOCH":"2023-05-25T20:00:18.382176","LAUNCH_DATE":"2022-07-11","MEAN_ANOMALY":"318.6222","TLE_LINE2":"2 53064  97.6551 327.2320 0002619  41.5201 318.6222 15.01259379 48056","OBJECT_NAME":"STARLINK-4313","COUNTRY_CODE":"US","RA_OF_ASC_NODE":"327.2320","PERIOD":"95.919","ELEMENT_SET_NO":"999","APOAPSIS":"564.832","MEAN_MOTION_DDOT":"0.0000000000000","PERIAPSIS":"561.196","MEAN_MOTION_DOT":"0.00000015","MEAN_ELEMENT_THEORY":"SGP4","ARG_OF_PERICENTER":"41.5201","REV_AT_EPOCH":"4805","SITE":"AFWTR","INCLINATION":"97.6551","CLASSIFICATION_TYPE":"U","GP_ID":"232515906"},{"GP_ID":"232516156","INCLINATION":"97.6541","CLASSIFICATION_TYPE":"U","ARG_OF_PERICENTER":"50.6386","REV_AT_EPOCH":"4805","SITE":"AFWTR","MEAN_MOTION_DDOT":"0.0000000000000","PERIAPSIS":"562.080","MEAN_MOTION_DOT":"0.00000096","MEAN_ELEMENT_THEORY":"SGP4","APOAPSIS":"563.939","PERIOD":"95.919","ELEMENT_SET_NO":"999","TLE_LINE2":"2 53065  97.6541 327.2233 0001339  50.6386 309.4957 15.01260784 48057","MEAN_ANOMALY":"309.4957","COUNTRY_CODE":"US","OBJECT_NAME":"STARLINK-4312","RA_OF_ASC_NODE":"327.2233","LAUNCH_DATE":"2022-07-11","EPOCH":"2023-05-25T19:52:18.114816","REF_FRAME":"TEME","EPHEMERIS_TYPE":"0","MEAN_MOTION":"15.01260784","ECCENTRICITY":"0.00013390","BSTAR":"0.00001204500000","TLE_LINE1":"1 53065U 22077Y   23145.82798744  .00000096  00000-0  12045-4 0  9992","TIME_SYSTEM":"UTC","RCS_SIZE":"LARGE","OBJECT_TYPE":"PAYLOAD","FILE":"3917122","NORAD_CAT_ID":"53065","DECAY_DATE":null,"CENTER_NAME":"EARTH","SEMIMAJOR_AXIS":"6941.144","OBJECT_ID":"2022-077Y"},{"OBJECT_TYPE":"PAYLOAD","RCS_SIZE":"LARGE","SEMIMAJOR_AXIS":"6943.213","OBJECT_ID":"2022-077Z","FILE":"3917122","NORAD_CAT_ID":"53066","DECAY_DATE":null,"CENTER_NAME":"EARTH","EPOCH":"2023-05-25T19:55:45.870528","LAUNCH_DATE":"2022-07-11","MEAN_MOTION":"15.00590077","ECCENTRICITY":"0.00058050","BSTAR":"-0.00721660000000","TLE_LINE1":"1 53066U 22077Z   23145.83039202 -.00090025  00000-0 -72166-2 0  9992","TIME_SYSTEM":"UTC","REF_FRAME":"TEME","EPHEMERIS_TYPE":"0","APOAPSIS":"569.108","MEAN_MOTION_DDOT":"0.0000000000000","PERIAPSIS":"561.047","MEAN_MOTION_DOT":"-0.00090025","MEAN_ELEMENT_THEORY":"SGP4","MEAN_ANOMALY":"313.7220","TLE_LINE2":"2 53066  97.6523 327.2261 0005805  46.4485 313.7220 15.00590077 48055","COUNTRY_CODE":"US","OBJECT_NAME":"STARLINK-4309","RA_OF_ASC_NODE":"327.2261","PERIOD":"95.962","ELEMENT_SET_NO":"999","INCLINATION":"97.6523","CLASSIFICATION_TYPE":"U","GP_ID":"232516908","ARG_OF_PERICENTER":"46.4485","SITE":"AFWTR","REV_AT_EPOCH":"4805"},{"OBJECT_TYPE":"PAYLOAD","RCS_SIZE":"LARGE","OBJECT_ID":"2022-077AA","SEMIMAJOR_AXIS":"6941.145","FILE":"3916682","NORAD_CAT_ID":"53067","DECAY_DATE":null,"CENTER_NAME":"EARTH","EPOCH":"2023-05-24T11:47:22.741152","LAUNCH_DATE":"2022-07-11","ECCENTRICITY":"0.00009010","MEAN_MOTION":"15.01260558","BSTAR":"0.00004546500000","TLE_LINE1":"1 53067U 22077AA  23144.49123543  .00000525  00000-0  45465-4 0  9994","TIME_SYSTEM":"UTC","EPHEMERIS_TYPE":"0","REF_FRAME":"TEME","APOAPSIS":"563.636","MEAN_MOTION_DDOT":"0.0000000000000","PERIAPSIS":"562.385","MEAN_MOTION_DOT":"0.00000525","MEAN_ELEMENT_THEORY":"SGP4","TLE_LINE2":"2 53067  97.6539 325.9035 0000901 105.9609 254.1714 15.01260558 48435","MEAN_ANOMALY":"254.1714","COUNTRY_CODE":"US","OBJECT_NAME":"STARLINK-4306","RA_OF_ASC_NODE":"325.9035","PERIOD":"95.919","ELEMENT_SET_NO":"999","INCLINATION":"97.6539","CLASSIFICATION_TYPE":"U","GP_ID":"232455957","ARG_OF_PERICENTER":"105.9609","SITE":"AFWTR","REV_AT_EPOCH":"4843"},{"RCS_SIZE":"LARGE","OBJECT_TYPE":"PAYLOAD","FILE":"3917122","DECAY_DATE":null,"CENTER_NAME":"EARTH","NORAD_CAT_ID":"53068","SEMIMAJOR_AXIS":"6937.664","OBJECT_ID":"2022-077AB","LAUNCH_DATE":"2022-07-11","EPOCH":"2023-05-25T15:04:19.057440","EPHEMERIS_TYPE":"0","REF_FRAME":"TEME","ECCENTRICITY":"0.00062270","MEAN_MOTION":"15.02390660","TIME_SYSTEM":"UTC","BSTAR":"0.01942800000000","TLE_LINE1":"1 53068U 22077AB  23145.62799835  .00266987  00000-0  19428-1 0  9997","PERIAPSIS":"555.209","MEAN_MOTION_DDOT":"0.0000000000000","MEAN_ELEMENT_THEORY":"SGP4","MEAN_MOTION_DOT":"0.00266987","APOAPSIS":"563.849","PERIOD":"95.847","ELEMENT_SET_NO":"999","TLE_LINE2":"2 53068  97.6532 327.0206 0006227 176.8335 183.2930 15.02390660 48028","MEAN_ANOMALY":"183.2930","RA_OF_ASC_NODE":"327.0206","OBJECT_NAME":"STARLINK-4325","COUNTRY_CODE":"US","GP_ID":"232516407","CLASSIFICATION_TYPE":"U","INCLINATION":"97.6532","ARG_OF_PERICENTER":"176.8335","REV_AT_EPOCH":"4802","SITE":"AFWTR"},{"SITE":"AFWTR","REV_AT_EPOCH":"4781","ARG_OF_PERICENTER":"119.1751","INCLINATION":"97.6544","CLASSIFICATION_TYPE":"U","GP_ID":"232450468","COUNTRY_CODE":"US","OBJECT_NAME":"STARLINK-4323","RA_OF_ASC_NODE":"325.6347","TLE_LINE2":"2 53069  97.6544 325.6347 0000950 119.1751 240.9568 15.01255951 47817","MEAN_ANOMALY":"240.9568","ELEMENT_SET_NO":"999","PERIOD":"95.920","APOAPSIS":"563.684","MEAN_MOTION_DOT":"-0.00000149","MEAN_ELEMENT_THEORY":"SGP4","MEAN_MOTION_DDOT":"0.0000000000000","PERIAPSIS":"562.365","TLE_LINE1":"1 53069U 22077AC  23144.22092643 -.00000149  00000-0 -70164-5 0  9992","BSTAR":"-0.00000701640000","TIME_SYSTEM":"UTC","ECCENTRICITY":"0.00009500","MEAN_MOTION":"15.01255951","EPHEMERIS_TYPE":"0","REF_FRAME":"TEME","EPOCH":"2023-05-24T05:18:08.043552","LAUNCH_DATE":"2022-07-11","SEMIMAJOR_AXIS":"6941.159","OBJECT_ID":"2022-077AC","NORAD_CAT_ID":"53069","DECAY_DATE":null,"CENTER_NAME":"EARTH","FILE":"3916549","OBJECT_TYPE":"PAYLOAD","RCS_SIZE":"LARGE"}];
